[
  {
    "OBJECT_NAME": "SENTINEL-3B",
    "OBJECT_ID": "2018-039A",
    "EPOCH": "2025-06-21T13:57:46.118592",
    "MEAN_MOTION": 14.26735356,
    "ECCENTRICITY": 7.9e-05,
    "INCLINATION": 98.6298,
    "RA_OF_ASC_NODE": 240.2398,
    "ARG_OF_PERICENTER": 115.0115,
    "MEAN_ANOMALY": 245.1148,
    "EPHEMERIS_TYPE": 0,
    "CLASSIFICATION_TYPE": "U",
    "NORAD_CAT_ID": 43437,
    "ELEMENT_SET_NO": 999,
    "REV_AT_EPOCH": 37270,
    "BSTAR": 4.6825e-05,
    "MEAN_MOTION_DOT": 7e-07,
    "MEAN_MOTION_DDOT": 0
  },
  {
    "OBJECT_NAME": "GAOFEN-5 01",
    "OBJECT_ID": "2018-043A",
    "EPOCH": "2025-06-21T07:57:10.462176",
    "MEAN_MOTION": 14.60171593,
    "ECCENTRICITY": 0.0002933,
    "INCLINATION": 98.4062,
    "RA_OF_ASC_NODE": 132.5726,
    "ARG_OF_PERICENTER": 105.2404,
    "MEAN_ANOMALY": 254.912,
    "EPHEMERIS_TYPE": 0,
    "CLASSIFICATION_TYPE": "U",
    "NORAD_CAT_ID": 43461,
    "ELEMENT_SET_NO": 999,
    "REV_AT_EPOCH": 37902,
    "BSTAR": 6.2723e-05,
    "MEAN_MOTION_DOT": 2.54e-06,
    "MEAN_MOTION_DDOT": 0
  },
  {
    "OBJECT_NAME": "GAOFEN-6",
    "OBJECT_ID": "2018-048A",
    "EPOCH": "2025-06-21T19:58:56.920800",
    "MEAN_MOTION": 14.76572232,
    "ECCENTRICITY": 0.0011267,
    "INCLINATION": 97.8228,
    "RA_OF_ASC_NODE": 242.6922,
    "ARG_OF_PERICENTER": 257.606,
    "MEAN_ANOMALY": 102.3889,
    "EPHEMERIS_TYPE": 0,
    "CLASSIFICATION_TYPE": "U",
    "NORAD_CAT_ID": 43484,
    "ELEMENT_SET_NO": 999,
    "REV_AT_EPOCH": 38021,
    "BSTAR": 7.6425e-05,
    "MEAN_MOTION_DOT": 4.84e-06,
    "MEAN_MOTION_DDOT": 0
  },
  {
    "OBJECT_NAME": "GAOFEN-11 01",
    "OBJECT_ID": "2018-063A",
    "EPOCH": "2025-06-21T20:32:11.004288",
    "MEAN_MOTION": 15.4393467,
    "ECCENTRICITY": 0.0005588,
    "INCLINATION": 97.1795,
    "RA_OF_ASC_NODE": 237.7215,
    "ARG_OF_PERICENTER": 201.2192,
    "MEAN_ANOMALY": 158.8825,
    "EPHEMERIS_TYPE": 0,
    "CLASSIFICATION_TYPE": "U",
    "NORAD_CAT_ID": 43585,
    "ELEMENT_SET_NO": 999,
    "REV_AT_EPOCH": 38455,
    "BSTAR": 0.00019078,
    "MEAN_MOTION_DOT": 8.594e-05,
    "MEAN_MOTION_DDOT": 0
  },
  {
    "OBJECT_NAME": "ICESAT-2",
    "OBJECT_ID": "2018-070A",
    "EPOCH": "2025-06-21T19:47:21.625440",
    "MEAN_MOTION": 15.28314109,
    "ECCENTRICITY": 0.0006271,
    "INCLINATION": 91.9877,
    "RA_OF_ASC_NODE": 193.9911,
    "ARG_OF_PERICENTER": 120.746,
    "MEAN_ANOMALY": 239.4407,
    "EPHEMERIS_TYPE": 0,
    "CLASSIFICATION_TYPE": "U",
    "NORAD_CAT_ID": 43613,
    "ELEMENT_SET_NO": 999,
    "REV_AT_EPOCH": 37742,
    "BSTAR": 8.8983e-05,
    "MEAN_MOTION_DOT": 2.457e-05,
    "MEAN_MOTION_DDOT": 0
  },
  {
    "OBJECT_NAME": "HYSIS",
    "OBJECT_ID": "2018-096A",
    "EPOCH": "2025-06-21T19:06:43.615296",
    "MEAN_MOTION": 14.78606497,
    "ECCENTRICITY": 0.0001172,
    "INCLINATION": 98.0302,
    "RA_OF_ASC_NODE": 236.3759,
    "ARG_OF_PERICENTER": 129.3348,
    "MEAN_ANOMALY": 230.7966,
    "EPHEMERIS_TYPE": 0,
    "CLASSIFICATION_TYPE": "U",
    "NORAD_CAT_ID": 43719,
    "ELEMENT_SET_NO": 999,
    "REV_AT_EPOCH": 35465,
    "BSTAR": 0.00012345,
    "MEAN_MOTION_DOT": 9.02e-06,
    "MEAN_MOTION_DDOT": 1.289e-10
  },
  {
    "OBJECT_NAME": "KAZSTSAT",
    "OBJECT_ID": "2018-099AB",
    "EPOCH": "2025-06-21T02:36:11.406240",
    "MEAN_MOTION": 14.9873071,
    "ECCENTRICITY": 0.0007302,
    "INCLINATION": 97.4726,
    "RA_OF_ASC_NODE": 214.6405,
    "ARG_OF_PERICENTER": 172.4059,
    "MEAN_ANOMALY": 187.7277,
    "EPHEMERIS_TYPE": 0,
    "CLASSIFICATION_TYPE": "U",
    "NORAD_CAT_ID": 43783,
    "ELEMENT_SET_NO": 999,
    "REV_AT_EPOCH": 35720,
    "BSTAR": 6.257e-05,
    "MEAN_MOTION_DOT": 6.97e-06,
    "MEAN_MOTION_DDOT": 0
  },
  {
    "OBJECT_NAME": "SAUDISAT 5A",
    "OBJECT_ID": "2018-102A",
    "EPOCH": "2025-06-21T19:42:16.555680",
    "MEAN_MOTION": 15.23195891,
    "ECCENTRICITY": 0.0009803,
    "INCLINATION": 97.3578,
    "RA_OF_ASC_NODE": 236.4429,
    "ARG_OF_PERICENTER": 334.7977,
    "MEAN_ANOMALY": 25.2781,
    "EPHEMERIS_TYPE": 0,
    "CLASSIFICATION_TYPE": "U",
    "NORAD_CAT_ID": 43831,
    "ELEMENT_SET_NO": 999,
    "REV_AT_EPOCH": 36073,
    "BSTAR": 0.00015109,
    "MEAN_MOTION_DOT": 3.507e-05,
    "MEAN_MOTION_DDOT": 0
  },
  {
    "OBJECT_NAME": "SAUDISAT 5B",
    "OBJECT_ID": "2018-102C",
    "EPOCH": "2025-06-21T20:34:20.510976",
    "MEAN_MOTION": 15.23638298,
    "ECCENTRICITY": 0.0010594,
    "INCLINATION": 97.3658,
    "RA_OF_ASC_NODE": 238.913,
    "ARG_OF_PERICENTER": 337.4358,
    "MEAN_ANOMALY": 22.6412,
    "EPHEMERIS_TYPE": 0,
    "CLASSIFICATION_TYPE": "U",
    "NORAD_CAT_ID": 43833,
    "ELEMENT_SET_NO": 999,
    "REV_AT_EPOCH": 36084,
    "BSTAR": 0.00014387,
    "MEAN_MOTION_DOT": 3.381e-05,
    "MEAN_MOTION_DDOT": 0
  },
  {
    "OBJECT_NAME": "GAOFEN-10R",
    "OBJECT_ID": "2019-066A",
    "EPOCH": "2025-06-21T19:46:20.458560",
    "MEAN_MOTION": 14.82697939,
    "ECCENTRICITY": 0.0004444,
    "INCLINATION": 98.0051,
    "RA_OF_ASC_NODE": 119.9374,
    "ARG_OF_PERICENTER": 223.0113,
    "MEAN_ANOMALY": 137.0753,
    "EPHEMERIS_TYPE": 0,
    "CLASSIFICATION_TYPE": "U",
    "NORAD_CAT_ID": 44622,
    "ELEMENT_SET_NO": 999,
    "REV_AT_EPOCH": 30897,
    "BSTAR": 0.00012285,
    "MEAN_MOTION_DOT": 9.37e-06,
    "MEAN_MOTION_DDOT": 0
  },
  {
    "OBJECT_NAME": "CARTOSAT-3",
    "OBJECT_ID": "2019-081A",
    "EPOCH": "2025-06-21T19:31:58.474272",
    "MEAN_MOTION": 15.19207868,
    "ECCENTRICITY": 0.0012797,
    "INCLINATION": 97.4807,
    "RA_OF_ASC_NODE": 234.3085,
    "ARG_OF_PERICENTER": 335.0657,
    "MEAN_ANOMALY": 24.9958,
    "EPHEMERIS_TYPE": 0,
    "CLASSIFICATION_TYPE": "U",
    "NORAD_CAT_ID": 44804,
    "ELEMENT_SET_NO": 999,
    "REV_AT_EPOCH": 30870,
    "BSTAR": 0.00013945,
    "MEAN_MOTION_DOT": 2.871e-05,
    "MEAN_MOTION_DDOT": 0
  },
  {
    "OBJECT_NAME": "GAOFEN-12 01",
    "OBJECT_ID": "2019-082A",
    "EPOCH": "2025-06-21T20:18:25.330464",
    "MEAN_MOTION": 14.8041061,
    "ECCENTRICITY": 0.000418,
    "INCLINATION": 97.8128,
    "RA_OF_ASC_NODE": 183.6553,
    "ARG_OF_PERICENTER": 95.392,
    "MEAN_ANOMALY": 264.7769,
    "EPHEMERIS_TYPE": 0,
    "CLASSIFICATION_TYPE": "U",
    "NORAD_CAT_ID": 44819,
    "ELEMENT_SET_NO": 999,
    "REV_AT_EPOCH": 30077,
    "BSTAR": 4.8362e-05,
    "MEAN_MOTION_DOT": 3.19e-06,
    "MEAN_MOTION_DDOT": 0
  },
  {
    "OBJECT_NAME": "CSG-1",
    "OBJECT_ID": "2019-092A",
    "EPOCH": "2025-06-21T19:33:51.798240",
    "MEAN_MOTION": 14.82166764,
    "ECCENTRICITY": 0.0001482,
    "INCLINATION": 97.8876,
    "RA_OF_ASC_NODE": 356.6424,
    "ARG_OF_PERICENTER": 86.9204,
    "MEAN_ANOMALY": 273.2179,
    "EPHEMERIS_TYPE": 0,
    "CLASSIFICATION_TYPE": "U",
    "NORAD_CAT_ID": 44873,
    "ELEMENT_SET_NO": 999,
    "REV_AT_EPOCH": 29809,
    "BSTAR": 5.0951e-05,
    "MEAN_MOTION_DOT": 3.54e-06,
    "MEAN_MOTION_DDOT": 0
  },
  {
    "OBJECT_NAME": "NEMO-HD",
    "OBJECT_ID": "2020-061F",
    "EPOCH": "2025-06-21T20:20:29.901120",
    "MEAN_MOTION": 15.36253038,
    "ECCENTRICITY": 7.84e-05,
    "INCLINATION": 97.2445,
    "RA_OF_ASC_NODE": 234.4535,
    "ARG_OF_PERICENTER": 123.4489,
    "MEAN_ANOMALY": 236.6831,
    "EPHEMERIS_TYPE": 0,
    "CLASSIFICATION_TYPE": "U",
    "NORAD_CAT_ID": 46277,
    "ELEMENT_SET_NO": 999,
    "REV_AT_EPOCH": 26651,
    "BSTAR": 0.00017787,
    "MEAN_MOTION_DOT": 6.205e-05,
    "MEAN_MOTION_DDOT": 0
  }
]