SENTINEL-3B             
1 43437U 18039A   25172.58178378  .00000070  00000+0  46825-4 0  9991
2 43437  98.6298 240.2398 0000790 115.0115 245.1148 14.26735356372709
GAOFEN-5 01             
1 43461U 18043A   25172.33137109  .00000254  00000+0  62723-4 0  9992
2 43461  98.4062 132.5726 0002933 105.2404 254.9120 14.60171593379029
GAOFEN-6                
1 43484U 18048A   25172.83260325  .00000484  00000+0  76425-4 0  9993
2 43484  97.8228 242.6922 0011267 257.6060 102.3889 14.76572232380215
GAOFEN-11 01            
1 43585U 18063A   25172.85568292  .00008594  00000+0  19078-3 0  9998
2 43585  97.1795 237.7215 0005588 201.2192 158.8825 15.43934670384559
ICESAT-2                
1 43613U 18070A   25172.82455585  .00002457  00000+0  88983-4 0  9999
2 43613  91.9877 193.9911 0006271 120.7460 239.4407 15.28314109377425
HYSIS                   
1 43719U 18096A   25172.79633814  .00000902  12890-9  12345-3 0  9994
2 43719  98.0302 236.3759 0001172 129.3348 230.7966 14.78606497354652
KAZSTSAT                
1 43783U 18099AB  25172.10846535  .00000697  00000+0  62570-4 0  9996
2 43783  97.4726 214.6405 0007302 172.4059 187.7277 14.98730710357200
SAUDISAT 5A             
1 43831U 18102A   25172.82102495  .00003507  00000+0  15109-3 0  9992
2 43831  97.3578 236.4429 0009803 334.7977  25.2781 15.23195891360738
SAUDISAT 5B             
1 43833U 18102C   25172.85718184  .00003381  00000+0  14387-3 0  9992
2 43833  97.3658 238.9130 0010594 337.4358  22.6412 15.23638298360844
GAOFEN-10R              
1 44622U 19066A   25172.82384790  .00000937  00000+0  12285-3 0  9997
2 44622  98.0051 119.9374 0004444 223.0113 137.0753 14.82697939308976
CARTOSAT-3              
1 44804U 19081A   25172.81387123  .00002871  00000+0  13945-3 0  9991
2 44804  97.4807 234.3085 0012797 335.0657  24.9958 15.19207868308709
GAOFEN-12 01            
1 44819U 19082A   25172.84612651  .00000319  00000+0  48362-4 0  9995
2 44819  97.8128 183.6553 0004180  95.3920 264.7769 14.80410610300778
CSG-1                   
1 44873U 19092A   25172.81518285  .00000354  00000+0  50951-4 0  9997
2 44873  97.8876 356.6424 0001482  86.9204 273.2179 14.82166764298091
NEMO-HD                 
1 46277U 20061F   25172.84756830  .00006205  00000+0  17787-3 0  9998
2 46277  97.2445 234.4535 0000784 123.4489 236.6831 15.36253038266510
